[{"OBJECT_NAME":"KUIPER-00028","OBJECT_ID":"2025-088T","EPOCH":"2026-03-02T11:18:29.340288","MEAN_MOTION":14.79933233,"ECCENTRICITY":5.04e-5,"INCLINATION":51.9011,"RA_OF_ASC_NODE":124.9749,"ARG_OF_PERICENTER":71.1758,"MEAN_ANOMALY":288.9259,"EPHEMERIS_TYPE":0,"CLASSIFICATION_TYPE":"U","NORAD_CAT_ID":63741,"ELEMENT_SET_NO":999,"REV_AT_EPOCH":4699,"BSTAR":0.0017159687,"MEAN_MOTION_DOT":0.00012885,"MEAN_MOTION_DDOT":0},{"OBJECT_NAME":"KUIPER-00029","OBJECT_ID":"2025-088U","EPOCH":"2026-03-03T03:55:20.958528","MEAN_MOTION":14.83587889,"ECCENTRICITY":7.15e-5,"INCLINATION":51.9013,"RA_OF_ASC_NODE":119.6048,"ARG_OF_PERICENTER":101.2475,"MEAN_ANOMALY":258.8569,"EPHEMERIS_TYPE":0,"CLASSIFICATION_TYPE":"U","NORAD_CAT_ID":63742,"ELEMENT_SET_NO":999,"REV_AT_EPOCH":4665,"BSTAR":0.00075943,"MEAN_MOTION_DOT":6.097e-5,"MEAN_MOTION_DDOT":0},{"OBJECT_NAME":"KUIPER-00030","OBJECT_ID":"2025-088V","EPOCH":"2026-03-02T14:54:26.108928","MEAN_MOTION":14.79960916,"ECCENTRICITY":0.0010575,"INCLINATION":51.9008,"RA_OF_ASC_NODE":141.803,"ARG_OF_PERICENTER":49.66,"MEAN_ANOMALY":310.5285,"EPHEMERIS_TYPE":0,"CLASSIFICATION_TYPE":"U","NORAD_CAT_ID":63743,"ELEMENT_SET_NO":999,"REV_AT_EPOCH":4658,"BSTAR":-2.3616e-5,"MEAN_MOTION_DOT":-4.04e-6,"MEAN_MOTION_DDOT":0},{"OBJECT_NAME":"KUIPER-00031","OBJECT_ID":"2025-088W","EPOCH":"2026-03-03T04:05:34.095264","MEAN_MOTION":14.83584061,"ECCENTRICITY":0.0002268,"INCLINATION":51.8995,"RA_OF_ASC_NODE":124.6863,"ARG_OF_PERICENTER":124.956,"MEAN_ANOMALY":235.1617,"EPHEMERIS_TYPE":0,"CLASSIFICATION_TYPE":"U","NORAD_CAT_ID":63744,"ELEMENT_SET_NO":999,"REV_AT_EPOCH":4658,"BSTAR":0.00079056,"MEAN_MOTION_DOT":6.356e-5,"MEAN_MOTION_DDOT":0},{"OBJECT_NAME":"KUIPER-00032","OBJECT_ID":"2025-088X","EPOCH":"2026-03-03T04:00:40.901184","MEAN_MOTION":15.37055299,"ECCENTRICITY":0.0005287,"INCLINATION":51.8706,"RA_OF_ASC_NODE":55.7562,"ARG_OF_PERICENTER":89.9334,"MEAN_ANOMALY":270.2259,"EPHEMERIS_TYPE":0,"CLASSIFICATION_TYPE":"U","NORAD_CAT_ID":63745,"ELEMENT_SET_NO":999,"REV_AT_EPOCH":4854,"BSTAR":0.00049833,"MEAN_MOTION_DOT":0.0001801,"MEAN_MOTION_DDOT":0},{"OBJECT_NAME":"KUIPER-00033","OBJECT_ID":"2025-088Y","EPOCH":"2026-03-02T13:08:52.308960","MEAN_MOTION":14.83364967,"ECCENTRICITY":7.37e-5,"INCLINATION":51.9012,"RA_OF_ASC_NODE":157.612,"ARG_OF_PERICENTER":44.1966,"MEAN_ANOMALY":315.9057,"EPHEMERIS_TYPE":0,"CLASSIFICATION_TYPE":"U","NORAD_CAT_ID":63746,"ELEMENT_SET_NO":999,"REV_AT_EPOCH":4655,"BSTAR":0.00086132,"MEAN_MOTION_DOT":6.909e-5,"MEAN_MOTION_DDOT":0},{"OBJECT_NAME":"KUIPER-00034","OBJECT_ID":"2025-088Z","EPOCH":"2026-03-03T04:14:52.603872","MEAN_MOTION":14.83534752,"ECCENTRICITY":0.0001704,"INCLINATION":51.9006,"RA_OF_ASC_NODE":117.155,"ARG_OF_PERICENTER":334.0833,"MEAN_ANOMALY":26.0045,"EPHEMERIS_TYPE":0,"CLASSIFICATION_TYPE":"U","NORAD_CAT_ID":63747,"ELEMENT_SET_NO":999,"REV_AT_EPOCH":4685,"BSTAR":0.00069151,"MEAN_MOTION_DOT":5.524e-5,"MEAN_MOTION_DDOT":0},{"OBJECT_NAME":"KUIPER-00035","OBJECT_ID":"2025-088AA","EPOCH":"2026-03-03T04:00:01.999584","MEAN_MOTION":14.83194698,"ECCENTRICITY":0.0003842,"INCLINATION":51.8993,"RA_OF_ASC_NODE":142.8638,"ARG_OF_PERICENTER":58.4545,"MEAN_ANOMALY":44.7401,"EPHEMERIS_TYPE":0,"CLASSIFICATION_TYPE":"U","NORAD_CAT_ID":63748,"ELEMENT_SET_NO":999,"REV_AT_EPOCH":281,"BSTAR":0.0042963,"MEAN_MOTION_DOT":0.00035377,"MEAN_MOTION_DDOT":0},{"OBJECT_NAME":"KUIPER-00037","OBJECT_ID":"2025-088AB","EPOCH":"2026-03-02T14:50:27.161088","MEAN_MOTION":14.79871354,"ECCENTRICITY":6.76e-5,"INCLINATION":51.9003,"RA_OF_ASC_NODE":144.3297,"ARG_OF_PERICENTER":39.3334,"MEAN_ANOMALY":320.7678,"EPHEMERIS_TYPE":0,"CLASSIFICATION_TYPE":"U","NORAD_CAT_ID":63749,"ELEMENT_SET_NO":999,"REV_AT_EPOCH":4726,"BSTAR":-4.3124e-5,"MEAN_MOTION_DOT":-5.49e-6,"MEAN_MOTION_DDOT":0},{"OBJECT_NAME":"KUIPER-00038","OBJECT_ID":"2025-088AC","EPOCH":"2026-03-03T04:11:48.346368","MEAN_MOTION":14.79901385,"ECCENTRICITY":5.44e-5,"INCLINATION":51.9028,"RA_OF_ASC_NODE":126.8996,"ARG_OF_PERICENTER":99.4725,"MEAN_ANOMALY":260.6299,"EPHEMERIS_TYPE":0,"CLASSIFICATION_TYPE":"U","NORAD_CAT_ID":63750,"ELEMENT_SET_NO":999,"REV_AT_EPOCH":4655,"BSTAR":0.0008512,"MEAN_MOTION_DOT":6.269e-5,"MEAN_MOTION_DDOT":0},{"OBJECT_NAME":"KUIPER-00039","OBJECT_ID":"2025-134A","EPOCH":"2026-03-03T01:55:11.853120","MEAN_MOTION":14.79918683,"ECCENTRICITY":0.0001028,"INCLINATION":51.8999,"RA_OF_ASC_NODE":262.3208,"ARG_OF_PERICENTER":61.6291,"MEAN_ANOMALY":298.4775,"EPHEMERIS_TYPE":0,"CLASSIFICATION_TYPE":"U","NORAD_CAT_ID":64500,"ELEMENT_SET_NO":999,"REV_AT_EPOCH":3909,"BSTAR":0.00057535,"MEAN_MOTION_DOT":4.166e-5,"MEAN_MOTION_DDOT":0},{"OBJECT_NAME":"KUIPER-00040","OBJECT_ID":"2025-134B","EPOCH":"2026-03-02T23:59:54.195648","MEAN_MOTION":14.79932074,"ECCENTRICITY":0.0013687,"INCLINATION":51.8989,"RA_OF_ASC_NODE":273.8116,"ARG_OF_PERICENTER":242.5964,"MEAN_ANOMALY":117.3606,"EPHEMERIS_TYPE":0,"CLASSIFICATION_TYPE":"U","NORAD_CAT_ID":64501,"ELEMENT_SET_NO":999,"REV_AT_EPOCH":3892,"BSTAR":0.00072254,"MEAN_MOTION_DOT":5.296e-5,"MEAN_MOTION_DDOT":0},{"OBJECT_NAME":"KUIPER-00041","OBJECT_ID":"2025-134C","EPOCH":"2026-03-02T19:12:43.524000","MEAN_MOTION":14.78691298,"ECCENTRICITY":0.00070895,"INCLINATION":51.8985,"RA_OF_ASC_NODE":276.0926,"ARG_OF_PERICENTER":241.9402,"MEAN_ANOMALY":118.0844,"EPHEMERIS_TYPE":0,"CLASSIFICATION_TYPE":"U","NORAD_CAT_ID":64502,"ELEMENT_SET_NO":999,"REV_AT_EPOCH":3887,"BSTAR":0.00055429749,"MEAN_MOTION_DOT":3.886e-5,"MEAN_MOTION_DDOT":0},{"OBJECT_NAME":"KUIPER-00042","OBJECT_ID":"2025-134D","EPOCH":"2026-03-03T00:03:41.335200","MEAN_MOTION":14.79872098,"ECCENTRICITY":0.0007388,"INCLINATION":51.8989,"RA_OF_ASC_NODE":271.1637,"ARG_OF_PERICENTER":257.3465,"MEAN_ANOMALY":102.6672,"EPHEMERIS_TYPE":0,"CLASSIFICATION_TYPE":"U","NORAD_CAT_ID":64503,"ELEMENT_SET_NO":999,"REV_AT_EPOCH":3896,"BSTAR":-0.00063289,"MEAN_MOTION_DOT":-5.039e-5,"MEAN_MOTION_DDOT":0},{"OBJECT_NAME":"KUIPER-00043","OBJECT_ID":"2025-134E","EPOCH":"2026-03-02T22:16:10.019136","MEAN_MOTION":14.83778187,"ECCENTRICITY":8.92e-5,"INCLINATION":51.9,"RA_OF_ASC_NODE":263.1025,"ARG_OF_PERICENTER":311.7049,"MEAN_ANOMALY":48.3838,"EPHEMERIS_TYPE":0,"CLASSIFICATION_TYPE":"U","NORAD_CAT_ID":64504,"ELEMENT_SET_NO":999,"REV_AT_EPOCH":3907,"BSTAR":0.00058344,"MEAN_MOTION_DOT":4.652e-5,"MEAN_MOTION_DDOT":0},{"OBJECT_NAME":"KUIPER-00044","OBJECT_ID":"2025-134F","EPOCH":"2026-03-02T23:55:55.900992","MEAN_MOTION":14.79979669,"ECCENTRICITY":0.0007889,"INCLINATION":51.8983,"RA_OF_ASC_NODE":276.1858,"ARG_OF_PERICENTER":252.6055,"MEAN_ANOMALY":107.4045,"EPHEMERIS_TYPE":0,"CLASSIFICATION_TYPE":"U","NORAD_CAT_ID":64505,"ELEMENT_SET_NO":999,"REV_AT_EPOCH":3889,"BSTAR":0.0029357,"MEAN_MOTION_DOT":0.00022267,"MEAN_MOTION_DDOT":0},{"OBJECT_NAME":"KUIPER-00046","OBJECT_ID":"2025-134G","EPOCH":"2026-03-03T00:02:10.601376","MEAN_MOTION":14.79933784,"ECCENTRICITY":7.41e-5,"INCLINATION":51.8971,"RA_OF_ASC_NODE":272.6277,"ARG_OF_PERICENTER":107.2004,"MEAN_ANOMALY":252.9039,"EPHEMERIS_TYPE":0,"CLASSIFICATION_TYPE":"U","NORAD_CAT_ID":64506,"ELEMENT_SET_NO":999,"REV_AT_EPOCH":3894,"BSTAR":0.00057168,"MEAN_MOTION_DOT":4.14e-5,"MEAN_MOTION_DDOT":0}]
