KUIPER-00028            
1 63741U 25088T   26061.47117292  .00012885  00000+0  17160-2 0  9992
2 63741  51.9011 124.9749 0000504  71.1758 288.9259 14.79933233 46999
KUIPER-00029            
1 63742U 25088U   26062.16343702  .00006097  00000+0  75943-3 0  9999
2 63742  51.9013 119.6048 0000715 101.2475 258.8569 14.83587889 46650
KUIPER-00030            
1 63743U 25088V   26061.62113552 -.00000404  00000+0 -23616-4 0  9997
2 63743  51.9008 141.8030 0010575  49.6600 310.5285 14.79960916 46587
KUIPER-00031            
1 63744U 25088W   26062.17053351  .00006356  00000+0  79056-3 0  9997
2 63744  51.8995 124.6863 0002268 124.9560 235.1617 14.83584061 46586
KUIPER-00032            
1 63745U 25088X   26062.16714006  .00018010  00000+0  49833-3 0  9998
2 63745  51.8706  55.7562 0005287  89.9334 270.2259 15.37055299 48546
KUIPER-00033            
1 63746U 25088Y   26061.54782765  .00006909  00000+0  86132-3 0  9994
2 63746  51.9012 157.6120 0000737  44.1966 315.9057 14.83364967 46556
KUIPER-00034            
1 63747U 25088Z   26062.17699773  .00005524  00000+0  69151-3 0  9995
2 63747  51.9006 117.1550 0001704 334.0833  26.0045 14.83534752 46858
KUIPER-00035            
1 63748U 25088AA  26062.16668981  .00035377  00000+0  42963-2 0  9992
2 63748  51.8993 142.8638 0003842  58.4545  44.7401 14.83194698  2819
KUIPER-00037            
1 63749U 25088AB  26061.61836992 -.00000549  00000+0 -43124-4 0  9998
2 63749  51.9003 144.3297 0000676  39.3334 320.7678 14.79871354 47264
KUIPER-00038            
1 63750U 25088AC  26062.17486512  .00006269  00000+0  85120-3 0  9995
2 63750  51.9028 126.8996 0000544  99.4725 260.6299 14.79901385 46559
KUIPER-00039            
1 64500U 25134A   26062.07999830  .00004166  00000+0  57535-3 0  9995
2 64500  51.8999 262.3208 0001028  61.6291 298.4775 14.79918683 39096
KUIPER-00040            
1 64501U 25134B   26061.99993282  .00005296  00000+0  72254-3 0  9991
2 64501  51.8989 273.8116 0013687 242.5964 117.3606 14.79932074 38925
KUIPER-00041            
1 64502U 25134C   26061.80050375  .00003886  00000+0  55430-3 0  9999
2 64502  51.8985 276.0926 0007089 241.9402 118.0844 14.78691298 38870
KUIPER-00042            
1 64503U 25134D   26062.00256175 -.00005039  00000+0 -63289-3 0  9994
2 64503  51.8989 271.1637 0007388 257.3465 102.6672 14.79872098 38960
KUIPER-00043            
1 64504U 25134E   26061.92789374  .00004652  00000+0  58344-3 0  9991
2 64504  51.9000 263.1025 0000892 311.7049  48.3838 14.83778187 39076
KUIPER-00044            
1 64505U 25134F   26061.99717478  .00022267  00000+0  29357-2 0  9998
2 64505  51.8983 276.1858 0007889 252.6055 107.4045 14.79979669 38896
KUIPER-00046            
1 64506U 25134G   26062.00151159  .00004140  00000+0  57168-3 0  9992
2 64506  51.8971 272.6277 0000741 107.2004 252.9039 14.79933784 38942
